{"type": "FeatureCollection", "features": [ {"type": "Feature", "properties": {"norad_id": 37216, "name": "COSMO-SKYMED 4", "group": "resource", "lat": -79.79633278745557, "lon": -59.37108808439088, "alt_km": 630.8573794504546, "timestamp": "2025-12-15T15:53:19.535187+00:00", "meta": {"OBJECT_NAME": "COSMO-SKYMED 4", "OBJECT_ID": "2010-060A", "EPOCH": "2025-12-14T22:30:03.227904", "MEAN_MOTION": 14.82149135, "ECCENTRICITY": 0.00013792, "INCLINATION": 97.8807, "RA_OF_ASC_NODE": 170.2275, "ARG_OF_PERICENTER": 82.4751, "MEAN_ANOMALY": 277.6619, "EPHEMERIS_TYPE": 0, "CLASSIFICATION_TYPE": "U", "NORAD_CAT_ID": 37216, "ELEMENT_SET_NO": 999, "REV_AT_EPOCH": 81727, "BSTAR": 0.00013294921, "MEAN_MOTION_DOT": 1.006e-05, "MEAN_MOTION_DDOT": 0}, "tle": {"line1": "1 37216U 10060A   25348.93753736  .00001006  00000+0  13295-3 0  9990", "line2": "2 37216  97.8807 170.2275 0001379  82.4751 277.6619 14.82149135817272"}}, "geometry": {"type": "Point", "coordinates": [-59.37108808439088, -79.79633278745557]}}, {"type": "Feature", "properties": {"norad_id": 37387, "name": "RESOURCESAT-2", "group": "resource", "lat": -46.94681376648535, "lon": 62.73106774194231, "alt_km": 826.0929855288668, "timestamp": "2025-12-15T15:53:19.535201+00:00", "meta": {"OBJECT_NAME": "RESOURCESAT-2", "OBJECT_ID": "2011-015A", "EPOCH": "2025-12-14T21:31:53.039424", "MEAN_MOTION": 14.21598081, "ECCENTRICITY": 0.0006337, "INCLINATION": 98.7876, "RA_OF_ASC_NODE": 52.4393, "ARG_OF_PERICENTER": 36.9441, "MEAN_ANOMALY": 323.2172, "EPHEMERIS_TYPE": 0, "CLASSIFICATION_TYPE": "U", "NORAD_CAT_ID": 37387, "ELEMENT_SET_NO": 999, "REV_AT_EPOCH": 75999, "BSTAR": 9.3451195e-05, "MEAN_MOTION_DOT": 1.6e-06, "MEAN_MOTION_DDOT": 0}, "tle": {"line1": "1 37387U 11015A   25348.89714166  .00000160  00000+0  93451-4 0  9992", "line2": "2 37387  98.7876  52.4393 0006337  36.9441 323.2172 14.21598081759995"}}, "geometry": {"type": "Point", "coordinates": [62.73106774194231, -46.94681376648535]}}, {"type": "Feature", "properties": {"norad_id": 37781, "name": "HAIYANG-2A", "group": "resource", "lat": -80.58373056460938, "lon": 73.38067390804933, "alt_km": 976.5127088401559, "timestamp": "2025-12-15T15:53:19.535218+00:00", "meta": {"OBJECT_NAME": "HAIYANG-2A", "OBJECT_ID": "2011-043A", "EPOCH": "2025-12-14T22:54:13.863168", "MEAN_MOTION": 13.78835593, "ECCENTRICITY": 0.00016507, "INCLINATION": 99.3383, "RA_OF_ASC_NODE": 349.8549, "ARG_OF_PERICENTER": 80.9689, "MEAN_ANOMALY": 279.1649, "EPHEMERIS_TYPE": 0, "CLASSIFICATION_TYPE": "U", "NORAD_CAT_ID": 37781, "ELEMENT_SET_NO": 999, "REV_AT_EPOCH": 72129, "BSTAR": 0.00016465812, "MEAN_MOTION_DOT": 1.24e-06, "MEAN_MOTION_DDOT": 0}, "tle": {"line1": "1 37781U 11043A   25348.95432712  .00000124  00000+0  16466-3 0  9992", "line2": "2 37781  99.3383 349.8549 0001650  80.9689 279.1649 13.78835593721298"}}, "geometry": {"type": "Point", "coordinates": [73.38067390804933, -80.58373056460938]}}, {"type": "Feature", "properties": {"norad_id": 37791, "name": "RASAT", "group": "resource", "lat": -62.3250388516275, "lon": -116.80911067701676, "alt_km": 690.1579727750131, "timestamp": "2025-12-15T15:53:19.535229+00:00", "meta": {"OBJECT_NAME": "RASAT", "OBJECT_ID": "2011-044D", "EPOCH": "2025-12-14T22:55:42.759264", "MEAN_MOTION": 14.67913772, "ECCENTRICITY": 0.00218069, "INCLINATION": 98.0646, "RA_OF_ASC_NODE": 78.1798, "ARG_OF_PERICENTER": 58.3718, "MEAN_ANOMALY": 52.8575, "EPHEMERIS_TYPE": 0, "CLASSIFICATION_TYPE": "U", "NORAD_CAT_ID": 37791, "ELEMENT_SET_NO": 999, "REV_AT_EPOCH": 76615, "BSTAR": 0.00013270661, "MEAN_MOTION_DOT": 7.13e-06, "MEAN_MOTION_DDOT": 0}, "tle": {"line1": "1 37791U 11044D   25348.95535601  .00000713  00000+0  13271-3 0  9990", "line2": "2 37791  98.0646  78.1798 0021806  58.3718  52.8575 14.67913772766155"}}, "geometry": {"type": "Point", "coordinates": [-116.80911067701676, -62.3250388516275]}}, {"type": "Feature", "properties": {"norad_id": 37841, "name": "SRMSAT", "group": "resource", "lat": -5.405385296490098, "lon": -74.6291185066721, "alt_km": 859.9165284089086, "timestamp": "2025-12-15T15:53:19.535239+00:00", "meta": {"OBJECT_NAME": "SRMSAT", "OBJECT_ID": "2011-058D", "EPOCH": "2025-12-14T15:48:49.457664", "MEAN_MOTION": 14.11512147, "ECCENTRICITY": 0.00118046, "INCLINATION": 19.9714, "RA_OF_ASC_NODE": 96.3351, "ARG_OF_PERICENTER": 334.6313, "MEAN_ANOMALY": 153.0609, "EPHEMERIS_TYPE": 0, "CLASSIFICATION_TYPE": "U", "NORAD_CAT_ID": 37841, "ELEMENT_SET_NO": 999, "REV_AT_EPOCH": 73171, "BSTAR": 0.00010517798, "MEAN_MOTION_DOT": 4.58e-06, "MEAN_MOTION_DDOT": 0}, "tle": {"line1": "1 37841U 11058D   25348.65890576  .00000458  00000+0  10518-3 0  9990", "line2": "2 37841  19.9714  96.3351 0011804 334.6313 153.0609 14.11512147731710"}}, "geometry": {"type": "Point", "coordinates": [-74.6291185066721, -5.405385296490098]}}, {"type": "Feature", "properties": {"norad_id": 38012, "name": "PLEIADES 1A", "group": "resource", "lat": -58.73377424138662, "lon": 76.09182962167566, "alt_km": 705.5230550500419, "timestamp": "2025-12-15T15:53:19.535249+00:00", "meta": {"OBJECT_NAME": "PLEIADES 1A", "OBJECT_ID": "2011-076F", "EPOCH": "2025-12-15T00:15:37.203264", "MEAN_MOTION": 14.58564623, "ECCENTRICITY": 0.00012837, "INCLINATION": 98.182, "RA_OF_ASC_NODE": 61.7442, "ARG_OF_PERICENTER": 73.9104, "MEAN_ANOMALY": 49.2126, "EPHEMERIS_TYPE": 0, "CLASSIFICATION_TYPE": "U", "NORAD_CAT_ID": 38012, "ELEMENT_SET_NO": 999, "REV_AT_EPOCH": 74514, "BSTAR": 0.00013682103, "MEAN_MOTION_DOT": 5.91e-06, "MEAN_MOTION_DDOT": 0}, "tle": {"line1": "1 38012U 11076F   25349.01084726  .00000591  00000+0  13682-3 0  9997", "line2": "2 38012  98.1820  61.7442 0001283  73.9104  49.2126 14.58564623745145"}}, "geometry": {"type": "Point", "coordinates": [76.09182962167566, -58.73377424138662]}}, {"type": "Feature", "properties": {"norad_id": 38038, "name": "ZIYUAN 1-02C (ZY 1-02C)", "group": "resource", "lat": -7.764992631681981, "lon": 56.780808093467186, "alt_km": 772.8275822351279, "timestamp": "2025-12-15T15:53:19.535259+00:00", "meta": {"OBJECT_NAME": "ZIYUAN 1-02C (ZY 1-02C)", "OBJECT_ID": "2011-079A", "EPOCH": "2025-12-14T23:47:56.303232", "MEAN_MOTION": 14.38015597, "ECCENTRICITY": 0.00072816, "INCLINATION": 98.4331, "RA_OF_ASC_NODE": 54.9637, "ARG_OF_PERICENTER": 132.2976, "MEAN_ANOMALY": 351.4258, "EPHEMERIS_TYPE": 0, "CLASSIFICATION_TYPE": "U", "NORAD_CAT_ID": 38038, "ELEMENT_SET_NO": 999, "REV_AT_EPOCH": 73273, "BSTAR": 0.00023708652, "MEAN_MOTION_DOT": 6.74e-06, "MEAN_MOTION_DDOT": 0}, "tle": {"line1": "1 38038U 11079A   25348.99162388  .00000674  00000+0  23709-3 0  9998", "line2": "2 38038  98.4331  54.9637 0007281 132.2976 351.4258 14.38015597732737"}}, "geometry": {"type": "Point", "coordinates": [56.780808093467186, -7.764992631681981]}}, {"type": "Feature", "properties": {"norad_id": 38046, "name": "ZIYUAN 3-1 (ZY 3-1)", "group": "resource", "lat": 78.90742082396328, "lon": 16.162402667150214, "alt_km": 354.73492694973356, "timestamp": "2025-12-15T15:53:19.535268+00:00", "meta": {"OBJECT_NAME": "ZIYUAN 3-1 (ZY 3-1)", "OBJECT_ID": "2012-001A", "EPOCH": "2025-12-14T22:42:18.224064", "MEAN_MOTION": 15.68934649, "ECCENTRICITY": 0.00016545, "INCLINATION": 97.1756, "RA_OF_ASC_NODE": 55.4157, "ARG_OF_PERICENTER": 338.2024, "MEAN_ANOMALY": 21.9168, "EPHEMERIS_TYPE": 0, "CLASSIFICATION_TYPE": "U", "NORAD_CAT_ID": 38046, "ELEMENT_SET_NO": 999, "REV_AT_EPOCH": 77531, "BSTAR": 0.0004598432, "MEAN_MOTION_DOT": 0.00052937, "MEAN_MOTION_DDOT": 0}, "tle": {"line1": "1 38046U 12001A   25348.94604426  .00052937  00000+0  45984-3 0  9990", "line2": "2 38046  97.1756  55.4157 0001654 338.2024  21.9168 15.68934649775318"}}, "geometry": {"type": "Point", "coordinates": [16.162402667150214, 78.90742082396328]}}, {"type": "Feature", "properties": {"norad_id": 38338, "name": "ARIRANG-3 (KOMPSAT-3)", "group": "resource", "lat": -50.201135742539634, "lon": 114.14160412683283, "alt_km": 695.0659741651671, "timestamp": "2025-12-15T15:53:19.535277+00:00", "meta": {"OBJECT_NAME": "ARIRANG-3 (KOMPSAT-3)", "OBJECT_ID": "2012-025B", "EPOCH": "2025-12-14T22:24:23.721696", "MEAN_MOTION": 14.61715997, "ECCENTRICITY": 0.00052164, "INCLINATION": 98.3324, "RA_OF_ASC_NODE": 303.5395, "ARG_OF_PERICENTER": 331.4887, "MEAN_ANOMALY": 28.6028, "EPHEMERIS_TYPE": 0, "CLASSIFICATION_TYPE": "U", "NORAD_CAT_ID": 38338, "ELEMENT_SET_NO": 999, "REV_AT_EPOCH": 72442, "BSTAR": 0.00014978994, "MEAN_MOTION_DOT": 6.98e-06, "MEAN_MOTION_DDOT": 0}, "tle": {"line1": "1 38338U 12025B   25348.93360789  .00000698  00000+0  14979-3 0  9997", "line2": "2 38338  98.3324 303.5395 0005216 331.4887  28.6028 14.61715997724427"}}, "geometry": {"type": "Point", "coordinates": [114.14160412683283, -50.201135742539634]}}, {"type": "Feature", "properties": {"norad_id": 38709, "name": "EXACTVIEW-1 (ADS-1B)", "group": "resource", "lat": -21.941495154993714, "lon": -85.53231207924678, "alt_km": 820.1845815882598, "timestamp": "2025-12-15T15:53:19.535286+00:00", "meta": {"OBJECT_NAME": "EXACTVIEW-1 (ADS-1B)", "OBJECT_ID": "2012-039C", "EPOCH": "2025-12-14T22:05:24.185184", "MEAN_MOTION": 14.24908874, "ECCENTRICITY": 0.00105543, "INCLINATION": 98.9637, "RA_OF_ASC_NODE": 97.3562, "ARG_OF_PERICENTER": 347.8643, "MEAN_ANOMALY": 12.2279, "EPHEMERIS_TYPE": 0, "CLASSIFICATION_TYPE": "U", "NORAD_CAT_ID": 38709, "ELEMENT_SET_NO": 999, "REV_AT_EPOCH": 69646, "BSTAR": 8.2695226e-05, "MEAN_MOTION_DOT": 1.47e-06, "MEAN_MOTION_DDOT": 0}, "tle": {"line1": "1 38709U 12039C   25348.92041881  .00000147  00000+0  82695-4 0  9992", "line2": "2 38709  98.9637  97.3562 0010554 347.8643  12.2279 14.24908874696464"}}, "geometry": {"type": "Point", "coordinates": [-85.53231207924678, -21.941495154993714]}}]}